{"fetched_at":"2026-03-30T06:02:59Z","count":15439,"tles":[{"name":"STARLINK-30702","line1":"1 57955U 23148W   26087.83631151 -.00000379  00000+0 -67808-6 0  9995","line2":"2 57955  53.1600 285.2751 0001263  96.0139 264.1006 15.30199670141497","category":"Starlink"}]}